TRANSPORTER-12 OBJECT AZ
1 62656U 25009AZ  26068.71026235  .00016057  00000+0  54903-3 0  9991
2 62656  97.3981 151.9913 0000987  45.3581 314.7740 15.30349724 63792
STARLINK-35393          
1 65827U 25221E   26068.44899472  .00022317  00000+0  76321-3 0  9995
2 65827  53.1596  89.6657 0001398  94.3604 265.7557 15.30205542 26043
